MERIDIAN-10
1 52145U 22030A   26042.85709265  .00000274  00000-0  00000-0 0  9993
2 52145  62.6656 154.1505 6753463 272.9878  17.8510  2.00605384 28525
BRO-6
1 52422U 22047AE  26044.18678363  .00013414  00000-0  29962-3 0  9992
2 52422  97.3459 133.5569 0005325 147.6458 212.5118 15.43635518211988
STEP CUBELAB-II
1 52897U 22065D   26044.15493713  .00001001  00000-0  20420-3 0  9998
2 52897  98.1999 188.5951 0009599  58.2822 301.9314 14.63058289193363
RANDEV
1 52898U 22065E   26044.18834613  .00001247  00000-0  25019-3 0  9991
2 52898  98.1985 188.9256 0008892  58.8694 301.3379 14.63430736193118
SNUGLITE-II
1 52899U 22065F   26043.93172905  .00001339  00000-0  26417-3 0  9998
2 52899  98.1985 189.1424 0008392  59.4860 300.7170 14.64058475192811
MIMAN
1 52900U 22065G   26043.94634975  .00000767  00000-0  16349-3 0  9999
2 52900  98.2037 187.2087 0008621  60.0597 300.1459 14.61667571192293
GREENCUBE (IO-117)
1 53106U 22080B   25051.21822557 -.00000003  00000-0  00000 0 0  9995
2 53106  70.1434 106.3440 0008542  48.0089 312.1297  6.42557744 61200
ROBUSTA 1F (MTCUBE-2)
1 53109U 22080E   26043.83078621 -.00000003  00000-0  00000-0 0  9994
2 53109  70.1654 341.4916 0009141 316.3132  43.6803  6.42583123 84072
BLUEWALKER-3
1 53807U 22111AL  26043.83025242  .00004161  00000-0  12473-3 0  9993
2 53807  53.2293 257.1444 0007584 139.4078 220.7493 15.36760811191075
ELEKTRO-L4
1 55506U 23016A   26041.14962917 -.00000049  00000-0  00000-0 0  9999
2 55506   0.0447  97.2208 0002442 181.1096  81.6164  1.00273524 11062
SHARJAHSAT-1
1 55104U 23001CZ  26044.15784792  .00019699  00000-0  43031-3 0  9998
2 55104  97.3351 111.5437 0006393 181.8897 178.2328 15.44207096173325
METEOR M2-3
1 57166U 23091A   26044.22561537  .00000010  00000-0  23028-4 0  9997
2 57166  98.6270 101.6437 0004370 156.9679 203.1697 14.24034985136871
RESHUCUBE-2 (RS37S)
1 57168U 23091C   26044.11789379  .00011437  00000-0  47239-3 0  9997
2 57168  97.5210 105.9835 0012088 176.7767 183.3550 15.24110814145343
RASSVET 1-1
1 57169U 23091D   26044.15326117  .00008262  00000-0  36396-3 0  9993
2 57169  97.5294 105.5252 0011074 168.9408 191.2073 15.22032057145285
RASSVET 1-2
1 57170U 23091E   26044.15339439  .00008371  00000-0  36879-3 0  9993
2 57170  97.5299 105.5939 0010154 160.1629 200.0003 15.22032551145282
RASSVET 1-3
1 57171U 23091F   26044.15309751  .00008417  00000-0  37065-3 0  9997
2 57171  97.5295 105.5505 0011608 179.4452 180.6798 15.22032926145280
UMKA-1 (RS40S)
1 57172U 23091G   26044.13890781  .00006319  00000-0  30274-3 0  9998
2 57172  97.5239 103.3448 0013092 185.9071 174.2011 15.19214817145160
SATURN (RS43S)
1 57174U 23091J   26044.15709361  .00004743  00000-0  27215-3 0  9995
2 57174  97.5251  98.9896 0012786 210.4758 149.5731 15.12967110144872
CUBEBEL-2 (EU11S)
1 57175U 23091K   26044.12187839  .00012972  00000-0  50633-3 0  9996
2 57175  97.5235 106.4165 0010511 185.9556 174.1558 15.25993205145369
SITRO-AIS-5 (ANOKHIN)
1 57176U 23091L   26044.16690380  .00012705  00000-0  49028-3 0  9991
2 57176  97.5243 107.0651 0012385 174.3811 185.7568 15.26358743145400
ZORKIY-2M
1 57177U 23091M   26044.18990396  .00007607  00000-0  36492-3 0  9990
2 57177  97.5280 103.6004 0013815 183.2457 176.8689 15.19089443145168
CUBESX-HSE-3 (RS42S)
1 57178U 23091N   26044.20556916  .00013630  00000-0  50300-3 0  9997
2 57178  97.5269 108.4358 0012019 165.5902 194.5682 15.27824539145470
PHI-DEMO
1 57181U 23091R   26044.17842705  .00003984  00000-0  22514-3 0  9998
2 57181  97.5259  99.7372 0015005 200.9299 159.1320 15.13580712144924
MONITOR-3 (RS58S)
1 57180U 23091Q   26044.17877252  .00011980  00000-0  48022-3 0  9999
2 57180  97.5264 106.8599 0012724 170.8570 189.2902 15.25100163145373
NORBY-2
1 57179U 23091P   26044.19283955  .00004400  00000-0  23607-3 0  9991
2 57179  97.5286 101.3889 0015004 189.3035 170.7921 15.15385203145007
MONITOR-4 (RS57S)
1 57182U 23091S   26044.16524209  .00011155  00000-0  44631-3 0  9997
2 57182  97.5259 106.8097 0012708 171.1500 188.9964 15.25180936145371
MONITOR-2 (RS39S)
1 57184U 23091U   26044.21346560  .00005530  00000-0  27803-3 0  9999
2 57184  97.5264 103.3019 0011599 176.6132 183.5182 15.17601830145143
SVYATOBOR-1 (RS60S)
1 57187U 23091X   26044.21773897  .00009308  00000-0  38361-3 0  9997
2 57187  97.5270 107.4579 0010385 161.1093 199.0531 15.24263407145418
VIZARD-METEO (RS38S)
1 57189U 23091Z   26044.20836611  .00017268  00000-0  56365-3 0  9990
2 57189  97.5259 111.5075 0008671 147.0924 213.0858 15.31804110145683
NANOZOND-1 (RS49S)
1 57190U 23091AA  26044.20527997  .00124128  00000-0  11938-2 0  9996
2 57190  97.5150 122.6548 0002793 148.3750 211.7678 15.66165387146436
SITRO-AIS-6 (CHIRKIN)
1 57192U 23091AC  26044.16073110  .00006803  00000-0  28308-3 0  9995
2 57192  97.5245 106.7470 0012775 173.4515 186.6891 15.24018774145380
SITRO-AIS-8 (SHCHUKIN)
1 57193U 23091AD  26044.18466315  .00014691  00000-0  53043-3 0  9999
2 57193  97.5235 108.2184 0011684 171.6036 188.5401 15.28530407145480
SITRO-AIS-7 (SHEFFER)
1 57194U 23091AE  26043.61616398  .00008658  00000-0  36182-3 0  9996
2 57194  97.5246 106.0813 0012504 176.5654 183.5670 15.23790932145298
AVION KALUGA 650 (RS24S)
1 57195U 23091AF  26044.17345115  .00006928  00000-0  33519-3 0  9994
2 57195  97.5278 104.2751 0010837 175.2822 184.8516 15.18859143145191
SITRO-AIS-10 (KATYS)
1 57199U 23091AK  26044.22848392  .00018911  00000-0  58221-3 0  9991
2 57199  97.5247 112.1772 0008223 149.0847 211.0881 15.33659153145738
SITRO-AIS-9 (BURDAEV)
1 57201U 23091AM  26044.22093317  .00018693  00000-0  58197-3 0  9993
2 57201  97.5247 111.9830 0008273 149.8347 210.3373 15.33305351145727
UTMN-2 (RS27S)
1 57203U 23091AP  26044.22810770  .00013475  00000-0  48430-3 0  9997
2 57203  97.5259 109.9389 0009385 151.6310 208.5442 15.28725072145584
SITRO-AIS-12 (FARTUSHNY)
1 57204U 23091AQ  26044.16792045  .00018842  00000-0  58214-3 0  9999
2 57204  97.5256 112.3249 0008163 143.9054 216.2741 15.33548923145736
AHMAT-1 (RS41S)
1 57206U 23091AS  26044.20049407  .00044952  00000-0  85435-3 0  9999
2 57206  97.5201 117.8257 0005622 137.1043 223.0646 15.48116458146121
SITRO-AIS-11 (SMIRENNY)
1 57208U 23091AU  26044.21158065  .00019534  00000-0  59731-3 0  9991
2 57208  97.5254 112.5479 0008086 143.7044 216.4748 15.33870984145752
KUZGTU-1 (RS47S)
1 57217U 23091AV  26044.16373182  .00012706  00000-0  48457-3 0  9991
2 57217  97.5246 107.5609 0012089 168.4334 191.7185 15.26755022145438
STRATOSAT-TK1-E (RS52SE)
1 57323U 23091AX  26044.19943037  .00097992  00000-0  11736-2 0  9993
2 57323  97.5177 119.6276 0005482 144.9303 215.2315 15.60614981144114
STRATOSAT-TK1-D (RS52SD)
1 57326U 23091BA  26044.16547897  .00081115  00000-0  11123-2 0  9997
2 57326  97.5164 118.6724 0005510 144.8688 215.2931 15.57074009143892
METEOR M2-4
1 59051U 24039A   26044.16985576  .00000021  00000-0  29001-4 0  9990
2 59051  98.6859   5.1300 0007288 160.2875 199.8586 14.22413180101633
PARS-1
1 59065U 24039Q   26044.23236672  .00011980  00000-0  27574-3 0  9997
2 59065  97.4707  21.6002 0009374 189.8008 170.3058 15.42740702109511
SITRO-AIS-25
1 59066U 24039R   26044.24912142  .00004391  00000-0  34824-3 0  9996
2 59066  95.3949 149.9699 0148761  41.7945 319.4527 14.92409994106235
SITRO-AIS-26
1 59067U 24039S   26044.23448612  .00004638  00000-0  36925-3 0  9990
2 59067  95.3950 149.8813 0149020  42.2839 318.9761 14.92226513106229
SITRO-AIS-27
1 59068U 24039T   26044.23826662  .00004901  00000-0  38685-3 0  9994
2 59068  95.3950 150.1006 0148140  41.1630 320.0656 14.92617037106242
SITRO-AIS-28
1 59071U 24039U   26044.21856527  .00004452  00000-0  35152-3 0  9996
2 59071  95.3950 150.1279 0147933  41.0460 320.1785 14.92650169106244
SONATE-2
1 59112U 24043Q   26043.93844685  .00032467  00000-0  59101-3 0  9994
2 59112  97.5361 187.7212 0008016 301.1600  58.8864 15.49406655108592
HORS-1
1 57188U 23091Y   26044.21015750  .00009545  00000-0  39260-3 0  9997
2 57188  97.5249 107.2315 0009924 161.0258 199.1351 15.24325009145418
HORS-2
1 57196U 23091AG  26044.18467147  .00014196  00000-0  51338-3 0  9991
2 57196  97.5262 109.7388 0009282 155.5997 204.5684 15.28510832145564
ZORKIY-2M 6
1 59774U 24092B   26044.15927905  .00012324  00000-0  48196-3 0  9996
2 59774  97.6305 170.2695 0008742 256.6059 103.4204 15.25961384 96607
ZORKIY-2M 4
1 59775U 24092C   26044.19416369  .00011328  00000-0  43497-3 0  9990
2 59775  97.6446 171.7871 0008817 259.3873 100.6372 15.26595663 96646
SITRO-AIS-53
1 59776U 24092D   26043.87472464  .00019407  00000-0  63182-3 0  9992
2 59776  97.6389 172.4174 0007660 228.2949 131.7638 15.31873355 96688
SITRO-AIS-54
1 59777U 24092E   26043.88260346  .00019322  00000-0  63058-3 0  9996
2 59777  97.6391 172.3987 0007925 229.0334 131.0221 15.31794418 96687
SITRO-AIS-56
1 59778U 24092F   26044.10830536  .00021189  00000-0  67865-3 0  9991
2 59778  97.6382 172.8336 0007960 228.5868 131.4689 15.32377838 96738
RASSVET 1-4
1 59779U 24092G   26044.18596082  .00000231  00000-0  10305-3 0  9997
2 59779  98.6536 163.4770 0011499 208.4196 151.6361 14.31786387 91155
RASSVET 1-5
1 59780U 24092H   26044.18588418  .00000246  00000-0  10883-3 0  9990
2 59780  98.6536 163.4708 0011848 209.9679 150.0828 14.31786045 91150
RASSVET 1-6
1 59781U 24092J   26044.18452304  .00000240  00000-0  10647-3 0  9997
2 59781  98.6537 163.4742 0011744 210.1311 149.9198 14.31787003 91154
SITRO-AIS-55
1 59809U 24092K   26043.85743213  .00019237  00000-0  63066-3 0  9992
2 59809  97.6379 172.2291 0008023 229.8515 130.2024 15.31649258 96172
MESAT-1
1 60209U 24125G   26044.14149101  .00038799  00000-0  65711-3 0  9997
2 60209  97.2487 259.7629 0012274 322.2878  37.7513 15.51365225 90262
ISTSAT-1
1 60238U 24128D   26044.21615176  .00007264  00000-0  44755-3 0  9998
2 60238  61.9890 283.8953 0051488 107.5739 253.0990 15.09735424 87733
